[{"OBJECT_NAME":"STARLINK-31250","OBJECT_ID":"2024-017P","EPOCH":"2026-03-09T15:30:01.815840","MEAN_MOTION":15.30199938,"ECCENTRICITY":7.38e-5,"INCLINATION":53.1603,"RA_OF_ASC_NODE":194.2827,"ARG_OF_PERICENTER":71.9336,"MEAN_ANOMALY":288.1745,"EPHEMERIS_TYPE":0,"CLASSIFICATION_TYPE":"U","NORAD_CAT_ID":58839,"ELEMENT_SET_NO":999,"REV_AT_EPOCH":12014,"BSTAR":1.2177e-5,"MEAN_MOTION_DOT":2.0e-8,"MEAN_MOTION_DDOT":0},{"OBJECT_NAME":"SCS-01 H","OBJECT_ID":"2025-100H","EPOCH":"2026-03-09T23:19:05.376864","MEAN_MOTION":15.31767757,"ECCENTRICITY":0.00071581,"INCLINATION":97.3749,"RA_OF_ASC_NODE":145.8085,"ARG_OF_PERICENTER":277.8492,"MEAN_ANOMALY":82.1937,"EPHEMERIS_TYPE":0,"CLASSIFICATION_TYPE":"U","NORAD_CAT_ID":63989,"ELEMENT_SET_NO":999,"REV_AT_EPOCH":4566,"BSTAR":0.0011436254,"MEAN_MOTION_DOT":0.00035149,"MEAN_MOTION_DDOT":0}]
